satname,norad_id,inclination_deg,eccentricity,mean_motion_rev_per_day,perigee_km,apogee_km,l1,l2
STARLINK-1347,45586,53.0532,0.0010031,15.35541493,452.45393870877706,466.1712300649733,1 45586U 20025BH  25330.84787668  .00124105  00000+0  34897-2 0  9999,2 45586  53.0532 158.7722 0010031 109.0772 251.1317 15.35541493310274
STARLINK-1360,45588,53.0408,0.0002537,15.83110722,319.9500378789571,323.3495096879751,1 45588U 20025BK  25331.33336806  .00176838  00000+0  79398-3 0  9996,2 45588  53.0408  66.2699 0002537 323.9381 268.5442 15.83110722  6003
STARLINK-1364,45589,53.0518,0.0001478,15.06393082,546.2091910424151,548.2563303436755,1 45589U 20025BL  25330.85158360 -.00000206  00000+0  50679-5 0  9999,2 45589  53.0518 178.2800 0001478  96.6787 263.4370 15.06393082310000
STARLINK-1365,45590,53.0538,0.0001567,15.06396597,546.1367839094237,548.3071914161574,1 45590U 20025BM  25331.06628821 -.00000543  00000+0 -17546-4 0  9999,2 45590  53.0538 207.3096 0001567  96.7958 263.3209 15.06396597309636
STARLINK-1443,45660,53.0526,0.0001123,15.06334814,546.6336117646397,548.1890899242389,1 45660U 20035D   25330.78617621 -.00020005  00000+0 -13303-2 0  9992,2 45660  53.0526 168.5724 0001123  92.4373 267.6745 15.06334814303224
STARLINK-1446,45663,53.0264,7.31e-05,15.36232138,456.76348493285786,457.7628204351813,1 45663U 20035G   25330.76186311  .00032899  00000+0  92494-3 0  9991,2 45663  53.0264 126.2531 0000731 166.5592 193.5429 15.36232138303813
STARLINK-1448,45665,53.0543,0.000182,15.06392674,545.9735936401039,548.4944286881673,1 45665U 20035J   25330.78983532 -.00001371  00000+0 -73135-4 0  9990,2 45665  53.0543 168.5509 0001820  94.7605 265.3592 15.06392674303218
STARLINK-1451,45668,53.0525,0.0001386,15.06394043,546.2699595048698,548.1896711860845,1 45668U 20035M   25330.99260178 -.00000874  00000+0 -39819-4 0  9998,2 45668  53.0525 167.9620 0001386  95.9934 264.1213 15.06394043303256
STARLINK-1452,45669,53.0364,0.0011816,15.29274319,469.8791918226698,486.08156841536675,1 45669U 20035N   25330.72527571  .00062493  00000+0  21611-2 0  9995,2 45669  53.0364 146.1309 0011816 111.4537 248.7723 15.29274319303536
STARLINK-1453,45670,53.0546,0.0001088,15.12608267,527.4978079741413,529.0006376162219,1 45670U 20035P   25331.00005786  .00019127  00000+0  10968-2 0  9997,2 45670  53.0546 137.2848 0001088  74.6007  80.4005 15.12608267  5641
STARLINK-1454,45671,53.0534,0.0001628,15.06398415,546.088968203173,548.3438632753378,1 45671U 20035Q   25331.08102828  .00000441  00000+0  48494-4 0  9997,2 45671  53.0534 167.2495 0001628  95.4900 264.6274 15.06398415303259
STARLINK-1456,45673,53.0519,0.0001369,15.06396131,546.2753340504842,548.1714977323554,1 45673U 20035S   25330.83038176  .00002213  00000+0  16740-3 0  9992,2 45673  53.0519 168.3734 0001369  91.8227 268.2919 15.06396131303233
STARLINK-1457,45674,53.0534,0.000144,15.44098878,433.04617675028567,435.00808001926,1 45674U 20035T   25331.06439686  .00098153  00000+0  20950-2 0  9995,2 45674  53.0534 162.6897 0001440 144.6416 215.4686 15.44098878303307
STARLINK-1458,45675,53.0521,0.0001523,15.06419326,546.0976056004429,548.2070487294986,1 45675U 20035U   25330.82668602  .00005396  00000+0  38069-3 0  9999,2 45675  53.0521 168.3871 0001523  92.3771 267.7392 15.06419326303198
STARLINK-1460,45676,53.0535,0.0001523,15.06393159,546.1777909187285,548.2872584759516,1 45676U 20035V   25330.86356308 -.00000429  00000+0 -98809-5 0  9995,2 45676  53.0535 168.2236 0001523  90.7635 269.3528 15.06393159303193
STARLINK-1392,45677,53.0535,0.0001589,15.06405704,546.0936409469823,548.2945111629515,1 45677U 20035W   25330.87461920  .00000962  00000+0  83441-4 0  9999,2 45677  53.0535 168.1735 0001589  93.3296 266.7875 15.06405704303232
STARLINK-1394,45679,53.0531,0.0001416,15.06399866,546.23133921505,548.192598042966,1 45679U 20035Y   25330.87184917  .00000016  00000+0  19977-4 0  9992,2 45679  53.0531 158.1849 0001416  93.1900 266.9250 15.06399866303379
STARLINK-1402,45685,53.0542,0.0004156,15.29551283,474.3036476025618,480.0017644061927,1 45685U 20035AE  25331.28664067  .00047785  00000+0  16473-2 0  9994,2 45685  53.0542 144.9967 0004156 171.6045 188.5024 15.29551283303600
STARLINK-1404,45686,53.0535,0.0001451,15.06393792,546.2257137929737,548.2354554660333,1 45686U 20035AF  25330.83130815 -.00000443  00000+0 -10841-4 0  9991,2 45686  53.0535 158.3713 0001451  94.1256 265.9898 15.06393792303376
STARLINK-1413,45689,53.0531,0.0001413,15.06397336,546.2411698217029,548.1982756315447,1 45689U 20035AJ  25330.84973513  .00000610  00000+0  59825-4 0  9994,2 45689  53.0531 158.2836 0001413  94.0864 266.0286 15.06397336303283
STARLINK-1417,45693,53.0514,0.0001646,15.06782276,544.9004652021249,547.1799043313495,1 45693U 20035AN  25330.84481966  .00017869  00000+0  12030-2 0  9994,2 45693  53.0514 158.2963 0001646 119.4625 240.6528 15.06782276303362
STARLINK-1420,45695,53.0544,0.0001471,15.06394862,546.2085841237322,548.2460263023249,1 45695U 20035AQ  25330.78060210  .00000170  00000+0  30339-4 0  9995,2 45695  53.0544 138.5853 0001471  93.6683 266.4474 15.06394862303646
STARLINK-1422,45696,53.0516,0.0001589,15.06396913,546.1205797755792,548.32145855407,1 45696U 20035AR  25330.79075944  .00000270  00000+0  37040-4 0  9994,2 45696  53.0516 158.5519 0001589  97.6915 262.4255 15.06396913303359
STARLINK-1351,45697,53.0541,0.0001344,15.06396135,546.292635193694,548.1541720701907,1 45697U 20035AS  25330.70045382  .00000033  00000+0  21100-4 0  9996,2 45697  53.0541 138.9566 0001344  87.7347 272.3796 15.06396135303637
STARLINK-1398,45699,53.0476,0.0002758,15.55926097,397.59265326567765,401.33117682721786,1 45699U 20035AU  25330.81901076  .00054408  00000+0  77194-3 0  9999,2 45699  53.0476  89.1902 0002758 199.8368 160.2536 15.55926097304341
STARLINK-1400,45700,53.0518,0.0001444,15.0639304,546.2328660059529,548.2329128300171,1 45700U 20035AV  25330.74100106  .00000032  00000+0  21017-4 0  9997,2 45700  53.0518 138.7722 0001444  93.7314 266.3840 15.06393040303635
STARLINK-1403,45701,53.0539,0.0001499,15.06396767,546.1833554012119,548.2595778695104,1 45701U 20035AW  25330.77048912 -.00000049  00000+0  15636-4 0  9996,2 45701  53.0539 138.6421 0001499  91.7776 268.3384 15.06396767303638
STARLINK-1407,45703,53.0403,0.001041,15.4427935,426.4054725944734,440.58729329776816,1 45703U 20035AY  25330.65534951  .00025143  00000+0  54426-3 0  9998,2 45703  53.0403  90.9694 0010410 140.2413 219.9357 15.44279350304300
STARLINK-1411,45706,53.0511,6.75e-05,15.44259962,433.0936065559781,434.01318475939206,1 45706U 20035BB  25330.73497449  .00048532  00000+0  10414-2 0  9995,2 45706  53.0511 117.8251 0000675 276.8134  83.2795 15.44259962303921
STARLINK-1423,45710,53.0531,0.0001431,15.06396181,546.2322435943834,548.2142817015538,1 45710U 20035BF  25330.79628945  .00000688  00000+0  65114-4 0  9992,2 45710  53.0531 138.5258 0001431  91.2499 268.8654 15.06396181303646
STARLINK-1433,45711,53.0544,0.0001414,15.06392675,546.2547606387106,548.2132555598,1 45711U 20035BG  25330.77786352 -.00000034  00000+0  16602-4 0  9992,2 45711  53.0544 138.6072 0001414  92.3227 267.7924 15.06392675303639
STARLINK-1434,45712,53.0484,0.0006508,15.17197874,509.82845188844203,518.7996661868856,1 45712U 20035BH  25330.76722059  .00040693  00000+0  20264-2 0  9997,2 45712  53.0484 132.9887 0006508 143.7907 216.3528 15.17197874303725
STARLINK-1465,45731,53.0552,0.0001232,15.06391388,546.3847464095088,548.0911587978298,1 45731U 20038B   25331.27546604  .00000070  00000+0  23560-4 0  9997,2 45731  53.0552 336.3730 0001232  90.7563 269.3567 15.06391388300752
STARLINK-1471,45735,53.0491,0.0001582,15.42310975,438.2122003709828,440.3692345007803,1 45735U 20038F   25331.26376256  .00020667  00000+0  48063-3 0  9992,2 45735  53.0491 270.0473 0001582  82.2044 277.9141 15.42310975301694
STARLINK-1474,45738,53.0338,0.0003972,15.72213767,349.8980003285733,355.2448751114989,1 45738U 20038J   25331.08139305  .00094882  00000+0  70130-3 0  9997,2 45738  53.0338 222.8317 0003972  91.9850 268.1622 15.72213767302338
STARLINK-1475,45739,53.0404,0.000303,15.95878606,283.848171408843,287.88655805387043,1 45739U 20038K   25331.33336806  .00441605  90161-4  10653-2 0  9995,2 45739  53.0404 184.8962 0003030 162.6990 318.0613 15.95878606  6017
STARLINK-1480,45741,53.0562,0.0001415,15.06391214,546.2585452624871,548.2184265249953,1 45741U 20038M   25331.19068997  .00000774  00000+0  70892-4 0  9994,2 45741  53.0562 336.7539 0001415  89.3998 270.7153 15.06391214300759
STARLINK-1500,45744,53.0391,0.000155,15.28994272,477.75469351980064,479.88034942145623,1 45744U 20038Q   25331.18014443  .00023235  00000+0  82399-3 0  9994,2 45744  53.0391 311.4575 0001550 356.1676   3.9310 15.28994272301108
STARLINK-1504,45746,53.0271,0.0002937,15.42994403,435.27581701564304,439.2791914954423,1 45746U 20038S   25331.21617700  .00035922  00000+0  80807-3 0  9993,2 45746  53.0271 273.3225 0002937  42.3873 317.7358 15.42994403301636
STARLINK-1506,45747,53.0671,0.000282,15.22300142,496.96524181482255,500.84389325891243,1 45747U 20038T   25331.18412688  .00022981  00000+0  99602-3 0  9992,2 45747  53.0671 315.2255 0002820 348.0909  12.0020 15.22300142301053
STARLINK-1464,45751,53.055,0.0001464,15.06399242,546.2000097310865,548.2277524690726,1 45751U 20038X   25331.19253080 -.00000284  00000+0 -17579-6 0  9997,2 45751  53.0550 316.7457 0001464  81.0957 279.0198 15.06399242301034
STARLINK-1477,45754,53.0542,0.0004634,15.081974,538.5016011605785,544.914913745185,1 45754U 20038AA  25331.18823145  .00029864  00000+0  19194-2 0  9998,2 45754  53.0542 316.5634 0004634  52.6095 307.5316 15.08197400301035
STARLINK-1478,45755,53.0545,0.0002295,15.06389717,545.6536993045438,548.8324487585251,1 45755U 20038AB  25331.22569831  .00000362  00000+0  43210-4 0  9993,2 45755  53.0545 316.5946 0002295 145.9843 214.1294 15.06389717301022
